[{"OBJECT_NAME":"ONEWEB-0288","OBJECT_ID":"2021-075D","EPOCH":"2026-03-09T20:01:16.632192","MEAN_MOTION":13.12441591,"ECCENTRICITY":0.00018803,"INCLINATION":87.9003,"RA_OF_ASC_NODE":10.3741,"ARG_OF_PERICENTER":77.1612,"MEAN_ANOMALY":282.9727,"EPHEMERIS_TYPE":0,"CLASSIFICATION_TYPE":"U","NORAD_CAT_ID":49078,"ELEMENT_SET_NO":999,"REV_AT_EPOCH":22215,"BSTAR":0.00077625793,"MEAN_MOTION_DOT":2.92e-6,"MEAN_MOTION_DDOT":0},{"OBJECT_NAME":"THORAD AGENA D DEB","OBJECT_ID":"1970-025X","EPOCH":"2026-03-09T09:57:17.080128","MEAN_MOTION":13.33098389,"ECCENTRICITY":0.01124783,"INCLINATION":99.8894,"RA_OF_ASC_NODE":139.1894,"ARG_OF_PERICENTER":314.0154,"MEAN_ANOMALY":105.243,"EPHEMERIS_TYPE":0,"CLASSIFICATION_TYPE":"U","NORAD_CAT_ID":4639,"ELEMENT_SET_NO":999,"REV_AT_EPOCH":71598,"BSTAR":0.00029614951,"MEAN_MOTION_DOT":1.07e-6,"MEAN_MOTION_DDOT":0}]
